start=new Date('2022-07-19T00:00:00.000Z').valueOf();
sats=[{"TLE_LINE1":"1 47563U 21009R   22199.44070060 -.00001316  00000-0 -69445-4 0  9996","OBJECT_NAME":"STARLINK-1962","OBJECT_TYPE":"PAYLOAD","TLE_LINE2":"2 47563  53.0528 233.3456 0001921  53.7025 306.4141 15.06396433 80299","APOAPSIS":"548.555","ELEMENT_SET_NO":"999","FILE":"3516915","ARG_OF_PERICENTER":"53.7025","OBJECT_ID":"2021-009R","MEAN_ELEMENT_THEORY":"SGP4","INCLINATION":"53.0528","COUNTRY_CODE":"US","MEAN_MOTION":"15.06396433","REF_FRAME":"TEME","RCS_SIZE":"LARGE","REV_AT_EPOCH":"8029","DECAY_DATE":null,"BSTAR":"-0.00006944500000","CLASSIFICATION_TYPE":"U","GP_ID":"208375022","MEAN_ANOMALY":"306.4141","NORAD_CAT_ID":"47563","TIME_SYSTEM":"UTC","EPOCH":"2022-07-18T10:34:36.531840","MEAN_MOTION_DOT":"-0.00001316","MEAN_MOTION_DDOT":"0.0000000000000","CENTER_NAME":"EARTH","LAUNCH_DATE":"2021-02-04","SEMIMAJOR_AXIS":"6925.359","ECCENTRICITY":"0.00019210","EPHEMERIS_TYPE":"0","SITE":"AFETR","PERIOD":"95.592","RA_OF_ASC_NODE":"233.3456","PERIAPSIS":"545.894"},{"ELEMENT_SET_NO":"999","APOAPSIS":"548.525","INCLINATION":"53.0534","MEAN_ELEMENT_THEORY":"SGP4","OBJECT_ID":"2021-009S","FILE":"3517083","ARG_OF_PERICENTER":"57.9547","COUNTRY_CODE":"US","MEAN_MOTION":"15.06385900","OBJECT_NAME":"STARLINK-1963","OBJECT_TYPE":"PAYLOAD","TLE_LINE1":"1 47564U 21009S   22199.83972055  .00000145  00000-0  28678-4 0  9995","TLE_LINE2":"2 47564  53.0534 221.5578 0001831  57.9547 302.1620 15.06385900 81097","MEAN_MOTION_DDOT":"0.0000000000000","MEAN_MOTION_DOT":"0.00000145","EPOCH":"2022-07-18T20:09:11.855520","TIME_SYSTEM":"UTC","LAUNCH_DATE":"2021-02-04","ECCENTRICITY":"0.00018310","SEMIMAJOR_AXIS":"6925.392","CENTER_NAME":"EARTH","SITE":"AFETR","EPHEMERIS_TYPE":"0","PERIAPSIS":"545.989","RA_OF_ASC_NODE":"221.5578","PERIOD":"95.593","REV_AT_EPOCH":"8109","DECAY_DATE":null,"RCS_SIZE":"LARGE","REF_FRAME":"TEME","CLASSIFICATION_TYPE":"U","GP_ID":"208382854","BSTAR":"0.00002867800000","NORAD_CAT_ID":"47564","MEAN_ANOMALY":"302.1620"},{"NORAD_CAT_ID":"47565","MEAN_ANOMALY":"303.2087","CLASSIFICATION_TYPE":"U","GP_ID":"208376021","BSTAR":"0.00005865500000","REV_AT_EPOCH":"8043","DECAY_DATE":null,"REF_FRAME":"TEME","RCS_SIZE":"LARGE","PERIAPSIS":"545.940","RA_OF_ASC_NODE":"223.3565","PERIOD":"95.592","SITE":"AFETR","EPHEMERIS_TYPE":"0","ECCENTRICITY":"0.00018220","LAUNCH_DATE":"2021-02-04","SEMIMAJOR_AXIS":"6925.336","CENTER_NAME":"EARTH","MEAN_MOTION_DDOT":"0.0000000000000","MEAN_MOTION_DOT":"0.00000592","EPOCH":"2022-07-18T10:30:37.627200","TIME_SYSTEM":"UTC","TLE_LINE2":"2 47565  53.0523 223.3565 0001822  56.9077 303.2087 15.06403951 80432","OBJECT_NAME":"STARLINK-1964","OBJECT_TYPE":"PAYLOAD","TLE_LINE1":"1 47565U 21009T   22199.43793550  .00000592  00000-0  58655-4 0  9997","MEAN_MOTION":"15.06403951","COUNTRY_CODE":"US","INCLINATION":"53.0523","OBJECT_ID":"2021-009T","MEAN_ELEMENT_THEORY":"SGP4","FILE":"3516915","ARG_OF_PERICENTER":"56.9077","ELEMENT_SET_NO":"999","APOAPSIS":"548.463"},{"SITE":"AFETR","EPHEMERIS_TYPE":"0","PERIAPSIS":"546.015","RA_OF_ASC_NODE":"213.6885","PERIOD":"95.592","MEAN_MOTION_DDOT":"0.0000000000000","MEAN_MOTION_DOT":"-0.00000484","TIME_SYSTEM":"UTC","EPOCH":"2022-07-18T08:45:48.351744","LAUNCH_DATE":"2021-02-04","SEMIMAJOR_AXIS":"6925.351","ECCENTRICITY":"0.00017350","CENTER_NAME":"EARTH","GP_ID":"208376269","CLASSIFICATION_TYPE":"U","BSTAR":"-0.00001362200000","NORAD_CAT_ID":"47566","MEAN_ANOMALY":"306.0067","REV_AT_EPOCH":"8056","DECAY_DATE":null,"REF_FRAME":"TEME","RCS_SIZE":"LARGE","COUNTRY_CODE":"US","MEAN_MOTION":"15.06399082","ELEMENT_SET_NO":"999","APOAPSIS":"548.418","INCLINATION":"53.0524","MEAN_ELEMENT_THEORY":"SGP4","OBJECT_ID":"2021-009U","FILE":"3516915","ARG_OF_PERICENTER":"54.1083","TLE_LINE2":"2 47566  53.0524 213.6885 0001735  54.1083 306.0067 15.06399082 80563","OBJECT_TYPE":"PAYLOAD","OBJECT_NAME":"STARLINK-1965","TLE_LINE1":"1 47566U 21009U   22199.36514296 -.00000484  00000-0 -13622-4 0  9995"},{"REF_FRAME":"TEME","RCS_SIZE":"LARGE","DECAY_DATE":null,"REV_AT_EPOCH":"8003","MEAN_ANOMALY":"299.4672","NORAD_CAT_ID":"47567","BSTAR":"-0.00011844000000","CLASSIFICATION_TYPE":"U","GP_ID":"208406460","CENTER_NAME":"EARTH","SEMIMAJOR_AXIS":"6925.407","LAUNCH_DATE":"2021-02-04","ECCENTRICITY":"0.00014110","TIME_SYSTEM":"UTC","EPOCH":"2022-07-18T14:25:31.261728","MEAN_MOTION_DOT":"-0.00002044","MEAN_MOTION_DDOT":"0.0000000000000","PERIOD":"95.593","RA_OF_ASC_NODE":"252.6268","PERIAPSIS":"546.295","EPHEMERIS_TYPE":"0","SITE":"AFETR","TLE_LINE1":"1 47567U 21009V   22199.60105627 -.00002044  00000-0 -11844-3 0  9994","OBJECT_TYPE":"PAYLOAD","OBJECT_NAME":"STARLINK-1966","TLE_LINE2":"2 47567  53.0540 252.6268 0001411  60.6458 299.4672 15.06380813 80030","ARG_OF_PERICENTER":"60.6458","FILE":"3517175","OBJECT_ID":"2021-009V","MEAN_ELEMENT_THEORY":"SGP4","INCLINATION":"53.0540","APOAPSIS":"548.250","ELEMENT_SET_NO":"999","MEAN_MOTION":"15.06380813","COUNTRY_CODE":"US"},{"PERIAPSIS":"546.145","PERIOD":"95.592","RA_OF_ASC_NODE":"252.5075","EPHEMERIS_TYPE":"0","SITE":"AFETR","LAUNCH_DATE":"2021-02-04","SEMIMAJOR_AXIS":"6925.365","ECCENTRICITY":"0.00015660","CENTER_NAME":"EARTH","MEAN_MOTION_DDOT":"0.0000000000000","EPOCH":"2022-07-18T15:02:39.112512","TIME_SYSTEM":"UTC","MEAN_MOTION_DOT":"0.00001679","NORAD_CAT_ID":"47568","MEAN_ANOMALY":"296.3987","CLASSIFICATION_TYPE":"U","GP_ID":"208406698","BSTAR":"0.00013158000000","DECAY_DATE":null,"REV_AT_EPOCH":"8004","REF_FRAME":"TEME","RCS_SIZE":"LARGE","MEAN_MOTION":"15.06394669","COUNTRY_CODE":"US","INCLINATION":"53.0533","ARG_OF_PERICENTER":"63.7163","FILE":"3517175","MEAN_ELEMENT_THEORY":"SGP4","OBJECT_ID":"2021-009W","ELEMENT_SET_NO":"999","APOAPSIS":"548.314","TLE_LINE2":"2 47568  53.0533 252.5075 0001566  63.7163 296.3987 15.06394669 80046","TLE_LINE1":"1 47568U 21009W   22199.62684158  .00001679  00000-0  13158-3 0  9999","OBJECT_TYPE":"PAYLOAD","OBJECT_NAME":"STARLINK-1967"},{"RCS_SIZE":"LARGE","REF_FRAME":"TEME","REV_AT_EPOCH":"8144","DECAY_DATE":null,"BSTAR":"0.00060189000000","GP_ID":"208375527","CLASSIFICATION_TYPE":"U","MEAN_ANOMALY":"347.8152","NORAD_CAT_ID":"47569","TIME_SYSTEM":"UTC","EPOCH":"2022-07-18T11:59:50.237664","MEAN_MOTION_DOT":"0.00050723","MEAN_MOTION_DDOT":"0.0000000000000","CENTER_NAME":"EARTH","LAUNCH_DATE":"2021-02-04","ECCENTRICITY":"0.00044950","SEMIMAJOR_AXIS":"6763.752","EPHEMERIS_TYPE":"0","SITE":"AFETR","PERIOD":"92.266","RA_OF_ASC_NODE":"152.9973","PERIAPSIS":"382.577","TLE_LINE1":"1 47569U 21009X   22199.49988701  .00050723  00000-0  60189-3 0  9996","OBJECT_NAME":"STARLINK-1968","OBJECT_TYPE":"PAYLOAD","TLE_LINE2":"2 47569  53.0593 152.9973 0004495  12.2970 347.8152 15.60706415 81449","APOAPSIS":"388.658","ELEMENT_SET_NO":"999","FILE":"3516915","ARG_OF_PERICENTER":"12.2970","MEAN_ELEMENT_THEORY":"SGP4","OBJECT_ID":"2021-009X","INCLINATION":"53.0593","COUNTRY_CODE":"US","MEAN_MOTION":"15.60706415"},{"PERIOD":"95.593","RA_OF_ASC_NODE":"213.4245","PERIAPSIS":"546.161","EPHEMERIS_TYPE":"0","SITE":"AFETR","CENTER_NAME":"EARTH","ECCENTRICITY":"0.00015700","LAUNCH_DATE":"2021-02-04","SEMIMAJOR_AXIS":"6925.384","TIME_SYSTEM":"UTC","EPOCH":"2022-07-18T10:05:25.512288","MEAN_MOTION_DOT":"-0.00001821","MEAN_MOTION_DDOT":"0.0000000000000","MEAN_ANOMALY":"301.2880","NORAD_CAT_ID":"47570","BSTAR":"-0.00010339000000","CLASSIFICATION_TYPE":"U","GP_ID":"208351063","REF_FRAME":"TEME","RCS_SIZE":"LARGE","REV_AT_EPOCH":"8118","DECAY_DATE":null,"MEAN_MOTION":"15.06388540","COUNTRY_CODE":"US","FILE":"3516813","ARG_OF_PERICENTER":"58.8263","OBJECT_ID":"2021-009Y","MEAN_ELEMENT_THEORY":"SGP4","INCLINATION":"53.0537","APOAPSIS":"548.336","ELEMENT_SET_NO":"999","TLE_LINE2":"2 47570  53.0537 213.4245 0001570  58.8263 301.2880 15.06388540 81184","TLE_LINE1":"1 47570U 21009Y   22199.42043417 -.00001821  00000-0 -10339-3 0  9996","OBJECT_TYPE":"PAYLOAD","OBJECT_NAME":"STARLINK-1969"},{"MEAN_MOTION":"15.06391373","COUNTRY_CODE":"US","ARG_OF_PERICENTER":"62.5427","FILE":"3516915","OBJECT_ID":"2021-009Z","MEAN_ELEMENT_THEORY":"SGP4","INCLINATION":"53.0529","APOAPSIS":"548.352","ELEMENT_SET_NO":"999","TLE_LINE2":"2 47571  53.0529 223.3889 0001605  62.5427 297.5725 15.06391373 80433","TLE_LINE1":"1 47571U 21009Z   22199.43056515 -.00002158  00000-0 -12604-3 0  9992","OBJECT_TYPE":"PAYLOAD","OBJECT_NAME":"STARLINK-1970","PERIOD":"95.593","RA_OF_ASC_NODE":"223.3889","PERIAPSIS":"546.128","EPHEMERIS_TYPE":"0","SITE":"AFETR","CENTER_NAME":"EARTH","ECCENTRICITY":"0.00016050","LAUNCH_DATE":"2021-02-04","SEMIMAJOR_AXIS":"6925.375","TIME_SYSTEM":"UTC","EPOCH":"2022-07-18T10:20:00.828960","MEAN_MOTION_DOT":"-0.00002158","MEAN_MOTION_DDOT":"0.0000000000000","MEAN_ANOMALY":"297.5725","NORAD_CAT_ID":"47571","BSTAR":"-0.00012604000000","GP_ID":"208375023","CLASSIFICATION_TYPE":"U","REF_FRAME":"TEME","RCS_SIZE":"LARGE","REV_AT_EPOCH":"8043","DECAY_DATE":null},{"EPHEMERIS_TYPE":"0","SITE":"AFETR","PERIOD":"95.592","RA_OF_ASC_NODE":"223.1808","PERIAPSIS":"546.107","TIME_SYSTEM":"UTC","EPOCH":"2022-07-18T11:29:00.487104","MEAN_MOTION_DOT":"-0.00000111","MEAN_MOTION_DDOT":"0.0000000000000","CENTER_NAME":"EARTH","SEMIMAJOR_AXIS":"6925.332","LAUNCH_DATE":"2021-02-04","ECCENTRICITY":"0.00015750","BSTAR":"0.00001143300000","GP_ID":"208351062","CLASSIFICATION_TYPE":"U","MEAN_ANOMALY":"298.4571","NORAD_CAT_ID":"47572","RCS_SIZE":"LARGE","REF_FRAME":"TEME","REV_AT_EPOCH":"8104","DECAY_DATE":null,"COUNTRY_CODE":"US","MEAN_MOTION":"15.06405260","APOAPSIS":"548.288","ELEMENT_SET_NO":"999","ARG_OF_PERICENTER":"61.6577","FILE":"3516813","MEAN_ELEMENT_THEORY":"SGP4","OBJECT_ID":"2021-009AA","INCLINATION":"53.0532","TLE_LINE2":"2 47572  53.0532 223.1808 0001575  61.6577 298.4571 15.06405260 81047","TLE_LINE1":"1 47572U 21009AA  22199.47847786 -.00000111  00000-0  11433-4 0  9991","OBJECT_TYPE":"PAYLOAD","OBJECT_NAME":"STARLINK-1971"}];
